NORAD_CAT_ID,OBJECT_NAME,OBJECT_TYPE,EPOCH,MEAN_MOTION,ECCENTRICITY,INCLINATION,RA_OF_ASC_NODE,ARG_OF_PERICENTER,MEAN_ANOMALY,BSTAR,MEAN_MOTION_DOT,MEAN_MOTION_DDOT,TLE_LINE0,TLE_LINE1,TLE_LINE2,SEMIMAJOR_AXIS,PERIOD,APOGEE,PERIGEE,DECAYED
53606.0,STARLINK-4590,PAYLOAD,2023-06-15 12:28:13,15.08837254,0.000125,53.2174,35.1936,90.3746,269.7389,2.0452e-06,-2.55e-06,0.0,0 STARLINK-4590,1 53606U 22104U   23166.51960270 -.00000255  00000-0  20452-5 0  9998,2 53606  53.2174  35.1936 0001250  90.3746 269.7389 15.08837254 44946,6917.889,95.438,540.619,538.889,0.0
53606.0,STARLINK-4590,PAYLOAD,2023-06-15 17:14:23,15.08838303,0.0001189,53.2179,34.3029,81.4464,278.6663,1.1781e-05,-1e-06,0.0,0 STARLINK-4590,1 53606U 22104U   23166.71832217 -.00000100  00000-0  11781-4 0  9992,2 53606  53.2179  34.3029 0001189  81.4464 278.6663 15.08838303 44977,6917.886,95.438,540.573,538.928,0.0
53606.0,STARLINK-4590,PAYLOAD,2023-06-16 07:32:50,15.08844634,0.0001184,53.2178,31.6256,85.0225,275.0902,4.1047e-05,3.66e-06,0.0,0 STARLINK-4590,1 53606U 22104U   23167.31447629  .00000366  00000-0  41047-4 0  9999,2 53606  53.2178  31.6256 0001184  85.0225 275.0902 15.08844634 44496,6917.866,95.437,540.55,538.912,0.0
53606.0,STARLINK-4590,PAYLOAD,2023-06-16 10:43:37,15.08839768,0.0001142,53.2177,31.0325,90.9239,269.1884,5.7385e-05,6.26e-06,0.0,0 STARLINK-4590,1 53606U 22104U   23167.44695861  .00000626  00000-0  57385-4 0  9997,2 53606  53.2177  31.0325 0001142  90.9239 269.1884 15.08839768 45081,6917.881,95.438,540.536,538.956,0.0
53606.0,STARLINK-4590,PAYLOAD,2023-06-16 17:05:09,15.08843284,0.0001188,53.2174,29.8426,90.3919,269.7209,2.8911e-05,1.72e-06,0.0,0 STARLINK-4590,1 53606U 22104U   23167.71191761  .00000172  00000-0  28911-4 0  9996,2 53606  53.2174  29.8426 0001188  90.3919 269.7209 15.08843284 45124,6917.87,95.437,540.557,538.914,0.0
53606.0,STARLINK-4590,PAYLOAD,2023-06-17 07:23:38,15.08833395,0.0001195,53.2177,27.1648,83.3265,276.7863,-6.3679e-06,-3.89e-06,0.0,0 STARLINK-4590,1 53606U 22104U   23168.30808472 -.00000389  00000-0 -63679-5 0  9999,2 53606  53.2177  27.1648 0001195  83.3265 276.7863 15.08833395 44640,6917.901,95.438,540.592,538.939,0.0
53606.0,STARLINK-4590,PAYLOAD,2023-06-17 16:55:58,15.08817692,0.0001233,53.2175,25.3834,99.6185,260.4946,-0.00012703,-2.308e-05,0.0,0 STARLINK-4590,1 53606U 22104U   23168.70554141 -.00002308  00000-0 -12703-3 0  9997,2 53606  53.2175  25.3834 0001233  99.6185 260.4946 15.08817692 44700,6917.949,95.439,540.667,538.961,0.0
53606.0,STARLINK-4590,PAYLOAD,2023-06-17 21:42:08,15.08817096,0.0001248,53.2176,24.4913,97.1872,262.9262,-0.0001264,-2.298e-05,0.0,0 STARLINK-4590,1 53606U 22104U   23168.90426462 -.00002298  00000-0 -12640-3 0  9991,2 53606  53.2176  24.4913 0001248  97.1872 262.9262 15.08817096 45304,6917.95,95.439,540.679,538.952,0.0
53606.0,STARLINK-4590,PAYLOAD,2023-06-17 23:17:30,15.08829255,0.0001306,53.2176,24.193,105.1239,254.9897,-2.766e-05,-7.28e-06,0.0,0 STARLINK-4590,1 53606U 22104U   23168.97049269 -.00000728  00000-0 -27660-4 0  9999,2 53606  53.2176  24.1930 0001306 105.1239 254.9897 15.08829255 44744,6917.913,95.438,540.682,538.875,0.0
53606.0,STARLINK-4590,PAYLOAD,2023-06-18 07:14:25,15.08837161,0.0001106,53.2175,22.7062,100.5391,259.5725,-7.3724e-06,-4.05e-06,0.0,0 STARLINK-4590,1 53606U 22104U   23169.30168819 -.00000405  00000-0 -73724-5 0  9995,2 53606  53.2175  22.7062 0001106 100.5391 259.5725 15.08837161 44790,6917.889,95.438,540.519,538.989,0.0
53606.0,STARLINK-4590,PAYLOAD,2023-06-18 16:46:44,15.08838693,0.0001159,53.2174,20.9209,98.744,261.3683,3.3934e-05,2.52e-06,0.0,0 STARLINK-4590,1 53606U 22104U   23169.69912702  .00000252  00000-0  33934-4 0  9991,2 53606  53.2174  20.9209 0001159  98.7440 261.3683 15.08838693 45429,6917.884,95.438,540.551,538.948,0.0
53606.0,STARLINK-4590,PAYLOAD,2023-06-19 07:05:12,15.088497,0.0001107,53.2179,18.2436,85.7601,274.3518,2.0468e-05,3.8e-07,0.0,0 STARLINK-4590,1 53606U 22104U   23170.29528042  .00000038  00000-0  20468-4 0  9999,2 53606  53.2179  18.2436 0001107  85.7601 274.3518 15.08849700 44942,6917.851,95.437,540.482,538.95,0.0
53606.0,STARLINK-4590,PAYLOAD,2023-06-19 16:37:31,15.08830888,0.0001104,53.2179,16.4594,92.2802,267.8316,0.00021892,3.197e-05,0.0,0 STARLINK-4590,1 53606U 22104U   23170.69273023  .00003197  00000-0  21892-3 0  9999,2 53606  53.2179  16.4594 0001104  92.2802 267.8316 15.08830888 45008,6917.908,95.438,540.537,539.01,0.0
53606.0,STARLINK-4590,PAYLOAD,2023-06-19 19:48:19,15.08807121,9.88e-05,53.2175,15.8662,119.5329,240.5761,0.00063284,9.789e-05,0.0,0 STARLINK-4590,1 53606U 22104U   23170.82522000  .00009789  00000-0  63284-3 0  9990,2 53606  53.2175  15.8662 0000988 119.5329 240.5761 15.08807121 45599,6917.981,95.44,540.529,539.162,0.0
53606.0,STARLINK-4590,PAYLOAD,2023-06-19 22:59:04,15.08842288,0.0001061,53.2182,15.2696,92.3419,267.7694,0.00015898,2.243e-05,0.0,0 STARLINK-4590,1 53606U 22104U   23170.95768529  .00002243  00000-0  15898-3 0  9998,2 53606  53.2182  15.2696 0001061  92.3419 267.7694 15.08842288 45048,6917.873,95.437,540.472,539.004,0.0
53606.0,STARLINK-4590,PAYLOAD,2023-06-20 08:31:23,15.08837659,9.61e-05,53.2177,13.4864,88.9678,271.1424,7.107e-05,8.43e-06,0.0,0 STARLINK-4590,1 53606U 22104U   23171.35513102  .00000843  00000-0  71070-4 0  9997,2 53606  53.2177  13.4864 0000961  88.9678 271.1424 15.08837659 45108,6917.888,95.438,540.417,539.088,0.0
53606.0,STARLINK-4590,PAYLOAD,2023-06-20 18:03:42,15.08839526,8.64e-05,53.2177,11.7028,92.6116,267.4975,5.6407e-05,6.1e-06,0.0,0 STARLINK-4590,1 53606U 22104U   23171.75257011  .00000610  00000-0  56407-4 0  9994,2 53606  53.2177  11.7028 0000864  92.6116 267.4975 15.08839526 45735,6917.882,95.438,540.345,539.149,0.0
53606.0,STARLINK-4590,PAYLOAD,2023-06-21 13:08:19,15.08839389,8.96e-05,53.2175,8.1348,83.3384,276.771,6.8444e-05,8.02e-06,0.0,0 STARLINK-4590,1 53606U 22104U   23172.54745025  .00000802  00000-0  68444-4 0  9996,2 53606  53.2175   8.1348 0000896  83.3384 276.7710 15.08839389 45284,6917.882,95.438,540.367,539.127,0.0
53606.0,STARLINK-4590,PAYLOAD,2023-06-21 19:29:52,15.08843749,9.68e-05,53.2168,6.945,81.6761,278.4341,7.91e-05,9.71e-06,0.0,0 STARLINK-4590,1 53606U 22104U   23172.81240844  .00000971  00000-0  79100-4 0  9993,2 53606  53.2168   6.9450 0000968  81.6761 278.4341 15.08843749 45897,6917.869,95.437,540.404,539.064,0.0
53606.0,STARLINK-4590,PAYLOAD,2023-06-22 19:20:39,15.08841466,0.0001015,53.2173,2.4841,82.0244,278.0864,0.00019647,2.841e-05,0.0,0 STARLINK-4590,1 53606U 22104U   23173.80600744  .00002841  00000-0  19647-3 0  9999,2 53606  53.2173   2.4841 0001015  82.0244 278.0864 15.08841466 45477,6917.876,95.437,540.443,539.039,0.0
53606.0,STARLINK-4590,PAYLOAD,2023-06-23 22:22:12,15.08850119,9.83e-05,53.2168,357.4292,88.0389,272.0716,0.00018864,2.717e-05,0.0,0 STARLINK-4590,1 53606U 22104U   23174.93208462  .00002717  00000-0  18864-3 0  9997,2 53606  53.2168 357.4292 0000983  88.0389 272.0716 15.08850119 45647,6917.849,95.437,540.394,539.034,0.0
53606.0,STARLINK-4590,PAYLOAD,2023-06-24 15:51:27,15.08837747,0.0001181,53.2171,354.1586,93.3932,266.7195,-6.7694e-05,-1.365e-05,0.0,0 STARLINK-4590,1 53606U 22104U   23175.66072996 -.00001365  00000-0 -67694-4 0  9995,2 53606  53.2171 354.1586 0001181  93.3932 266.7195 15.08837747 45750,6917.887,95.438,540.569,538.935,0.0
53606.0,STARLINK-4590,PAYLOAD,2023-06-25 20:28:23,15.08844953,0.0001054,53.2175,348.8065,98.147,261.9642,6.4196e-05,7.34e-06,0.0,0 STARLINK-4590,1 53606U 22104U   23176.85305020  .00000734  00000-0  64196-4 0  9995,2 53606  53.2175 348.8065 0001054  98.1470 261.9642 15.08844953 45936,6917.865,95.437,540.459,539.001,0.0
53606.0,STARLINK-4590,PAYLOAD,2023-06-26 17:08:25,15.08835,0.0001242,53.2181,344.941,91.9715,268.1419,3.5319e-05,2.74e-06,0.0,0 STARLINK-4590,1 53606U 22104U   23177.71418095  .00000274  00000-0  35319-4 0  9992,2 53606  53.2181 344.9410 0001242  91.9715 268.1419 15.08835000 46065,6917.896,95.438,540.62,538.901,0.0
53606.0,STARLINK-4590,PAYLOAD,2023-06-27 18:34:34,15.08845153,0.0001174,53.2189,340.1824,89.5824,270.5303,0.00011586,1.557e-05,0.0,0 STARLINK-4590,1 53606U 22104U   23178.77401418  .00001557  00000-0  11586-3 0  9994,2 53606  53.2189 340.1824 0001174  89.5824 270.5303 15.08845153 46225,6917.865,95.437,540.542,538.917,0.0
53606.0,STARLINK-4590,PAYLOAD,2023-06-28 04:06:54,15.08833659,9.82e-05,53.2196,338.394,103.5361,256.5741,-5.4021e-05,-1.147e-05,0.0,0 STARLINK-4590,1 53606U 22104U   23179.17145838 -.00001147  00000-0 -54021-4 0  9999,2 53606  53.2196 338.3940 0000982 103.5361 256.5741 15.08833659 46284,6917.9,95.438,540.444,539.085,0.0
53606.0,STARLINK-4590,PAYLOAD,2023-06-28 16:49:58,15.0884514,0.0001036,53.2172,336.0193,88.1071,272.004,0.00013773,1.905e-05,0.0,0 STARLINK-4590,1 53606U 22104U   23179.70137526  .00001905  00000-0  13773-3 0  9991,2 53606  53.2172 336.0193 0001036  88.1071 272.0040 15.08845140 46362,6917.865,95.437,540.446,539.013,0.0
53606.0,STARLINK-4590,PAYLOAD,2023-06-29 16:40:45,15.08844592,9.13e-05,53.2162,331.5594,94.5143,265.5953,7.5444e-05,9.13e-06,0.0,0 STARLINK-4590,1 53606U 22104U   23180.69497584  .00000913  00000-0  75444-4 0  9996,2 53606  53.2162 331.5594 0000913  94.5143 265.5953 15.08844592 46517,6917.866,95.437,540.363,539.1,0.0
53606.0,STARLINK-4590,PAYLOAD,2023-06-30 19:42:18,15.08854259,0.0001207,53.2176,326.5049,84.3511,275.7619,0.00031603,4.747e-05,0.0,0 STARLINK-4590,1 53606U 22104U   23181.82105105  .00004747  00000-0  31603-3 0  9994,2 53606  53.2176 326.5049 0001207  84.3511 275.7619 15.08854259 46685,6917.837,95.437,540.537,538.867,0.0
53606.0,STARLINK-4590,PAYLOAD,2023-07-01 16:22:20,15.08839181,0.0001017,53.2171,322.6387,85.9889,274.122,6.6511e-06,-1.82e-06,0.0,0 STARLINK-4590,1 53606U 22104U   23182.68217711 -.00000182  00000-0  66511-5 0  9994,2 53606  53.2171 322.6387 0001017  85.9889 274.1220 15.08839181 46819,6917.883,95.438,540.451,539.044,0.0
